{
    "links": {
        "self": "http://www.neowsapp.com/rest/v1/neo/3734188?api_key=iIulBulltgU6a56xZRHN4H3l9WmuAYTsLGpBGhQ2"
    },
    "id": "3734188",
    "neo_reference_id": "3734188",
    "name": "(2015 VN66)",
    "designation": "2015 VN66",
    "nasa_jpl_url": "http://ssd.jpl.nasa.gov/sbdb.cgi?sstr=3734188",
    "absolute_magnitude_h": 22.4,
    "estimated_diameter": {
        "kilometers": {
            "estimated_diameter_min": 0.0880146521,
            "estimated_diameter_max": 0.1968067451
        },
        "meters": {
            "estimated_diameter_min": 88.0146520901,
            "estimated_diameter_max": 196.8067450894
        },
        "miles": {
            "estimated_diameter_min": 0.0546897524,
            "estimated_diameter_max": 0.122290004
        },
        "feet": {
            "estimated_diameter_min": 288.7619911632,
            "estimated_diameter_max": 645.6914415591
        }
    },
    "is_potentially_hazardous_asteroid": false,
    "close_approach_data": [
        {
            "close_approach_date": "2010-05-20",
            "close_approach_date_full": "2010-May-20 19:19",
            "epoch_date_close_approach": 1274383140000,
            "relative_velocity": {
                "kilometers_per_second": "14.7590050664",
                "kilometers_per_hour": "53132.4182389363",
                "miles_per_hour": "33014.4184329657"
            },
            "miss_distance": {
                "astronomical": "0.2099959525",
                "lunar": "81.6884255225",
                "kilometers": "31414947.202621175",
                "miles": "19520343.021375215"
            },
            "orbiting_body": "Earth"
        },
        {
            "close_approach_date": "2013-01-13",
            "close_approach_date_full": "2013-Jan-13 03:13",
            "epoch_date_close_approach": 1358046780000,
            "relative_velocity": {
                "kilometers_per_second": "21.725874122",
                "kilometers_per_hour": "78213.1468392461",
                "miles_per_hour": "48598.6078235304"
            },
            "miss_distance": {
                "astronomical": "0.0944764213",
                "lunar": "36.7513278857",
                "kilometers": "14133471.391702631",
                "miles": "8782131.8899370678"
            },
            "orbiting_body": "Venus"
        },
        {
            "close_approach_date": "2015-10-29",
            "close_approach_date_full": "2015-Oct-29 16:57",
            "epoch_date_close_approach": 1446137820000,
            "relative_velocity": {
                "kilometers_per_second": "17.9682420381",
                "kilometers_per_hour": "64685.6713373292",
                "miles_per_hour": "40193.160615131"
            },
            "miss_distance": {
                "astronomical": "0.1021593226",
                "lunar": "39.7399764914",
                "kilometers": "15282817.061602862",
                "miles": "9496302.1726970156"
            },
            "orbiting_body": "Earth"
        },
        {
            "close_approach_date": "2023-05-07",
            "close_approach_date_full": "2023-May-07 17:12",
            "epoch_date_close_approach": 1683479520000,
            "relative_velocity": {
                "kilometers_per_second": "19.4350499181",
                "kilometers_per_hour": "69966.1797049825",
                "miles_per_hour": "43474.2631616876"
            },
            "miss_distance": {
                "astronomical": "0.0626971521",
                "lunar": "24.3891921669",
                "kilometers": "9379360.409226027",
                "miles": "5828064.3073600926"
            },
            "orbiting_body": "Earth"
        },
        {
            "close_approach_date": "2124-10-22",
            "close_approach_date_full": "2124-Oct-22 12:32",
            "epoch_date_close_approach": 4885273920000,
            "relative_velocity": {
                "kilometers_per_second": "15.4833209326",
                "kilometers_per_hour": "55739.9553574518",
                "miles_per_hour": "34634.64059419"
            },
            "miss_distance": {
                "astronomical": "0.1887358512",
                "lunar": "73.4182461168",
                "kilometers": "28234481.332156944",
                "miles": "17544093.1693920672"
            },
            "orbiting_body": "Earth"
        }
    ],
    "orbital_data": {
        "orbit_id": "14",
        "orbit_determination_date": "2017-04-06 08:30:45",
        "first_observation_date": "2015-11-08",
        "last_observation_date": "2015-12-02",
        "data_arc_in_days": 24,
        "observations_used": 50,
        "orbit_uncertainty": "7",
        "minimum_orbit_intersection": ".0408894",
        "jupiter_tisserand_invariant": "3.635",
        "epoch_osculation": "2459000.5",
        "eccentricity": ".6807992618910532",
        "semi_major_axis": "1.887336492398158",
        "inclination": "5.359257565361435",
        "ascending_node_longitude": "195.7637765109576",
        "orbital_period": "947.0489627014033",
        "perihelion_distance": ".6024392014334425",
        "perihelion_argument": "118.3474825751562",
        "aphelion_distance": "3.172233783362873",
        "perihelion_time": "2459173.528227608291",
        "mean_anomaly": "294.2270944880129",
        "mean_motion": ".3801281815177966",
        "equinox": "J2000",
        "orbit_class": {
            "orbit_class_type": "APO",
            "orbit_class_description": "Near-Earth asteroid orbits which cross the Earth’s orbit similar to that of 1862 Apollo",
            "orbit_class_range": "a (semi-major axis) > 1.0 AU; q (perihelion) < 1.017 AU"
        }
    },
    "is_sentry_object": false
}